CTC2_L_00251001-01
1 35346U 23153UW  26037.47792824  .00000000  00000+0  00000-0 0  9995
2 35346  55.0000   0.0000 0000000   0.0000   0.0000 14.06899548    18
CTC2_L_00251001-02
1 35347U 22545GI  26037.47792824  .00000000  00000+0  00000-0 0  9990
2 35347  55.0000   0.0000 0000000   0.0000  90.0000 14.06899548    18
CTC2_L_00251001-03
1 35348U 26258SZ  26037.47792824  .00000000  00000+0  00000-0 0  9996
2 35348  55.0000   0.0000 0000000   0.0000 180.0000 14.06899548    19
CTC2_L_00251001-04
1 35349U 24378UX  26037.47792824  .00000000  00000+0  00000-0 0  9998
2 35349  55.0000   0.0000 0000000   0.0000 270.0000 14.06899548    10
CTC2_L_00251002-01
1 35350U 25790E   26037.47792824  .00000000  00000+0  00000-0 0  9999
2 35350  55.0000  12.0000 0000000   0.0000  12.0000 14.06899548    19
CTC2_L_00251002-02
1 35351U 24709CR  26037.47792824  .00000000  00000+0  00000-0 0  9999
2 35351  55.0000  12.0000 0000000   0.0000 102.0000 14.06899548    10
CTC2_L_00251002-03
1 35352U 22223DM  26037.47792824  .00000000  00000+0  00000-0 0  9999
2 35352  55.0000  12.0000 0000000   0.0000 192.0000 14.06899548    10
CTC2_L_00251002-04
1 35353U 23894NE  26037.47792824  .00000000  00000+0  00000-0 0  9995
2 35353  55.0000  12.0000 0000000   0.0000 282.0000 14.06899548    11
CTC2_L_00251003-01
1 35354U 24440ZK  26037.47792824  .00000000  00000+0  00000-0 0  9994
2 35354  55.0000  24.0000 0000000   0.0000  24.0000 14.06899548    19
CTC2_L_00251003-02
1 35355U 23472KP  26037.47792824  .00000000  00000+0  00000-0 0  9999
2 35355  55.0000  24.0000 0000000   0.0000 114.0000 14.06899548    10
CTC2_L_00251003-03
1 35356U 26788DM  26037.47792824  .00000000  00000+0  00000-0 0  9993
2 35356  55.0000  24.0000 0000000   0.0000 204.0000 14.06899548    11
CTC2_L_00251003-04
1 35357U 23167UY  26037.47792824  .00000000  00000+0  00000-0 0  9992
2 35357  55.0000  24.0000 0000000   0.0000 294.0000 14.06899548    11
CTC2_L_00251004-01
1 35358U 22661YW  26037.47792824  .00000000  00000+0  00000-0 0  9991
2 35358  55.0000  36.0000 0000000   0.0000  36.0000 14.06899548    19
CTC2_L_00251004-02
1 35359U 23169LH  26037.47792824  .00000000  00000+0  00000-0 0  9996
2 35359  55.0000  36.0000 0000000   0.0000 126.0000 14.06899548    10
CTC2_L_00251004-03
1 35360U 26353UT  26037.47792824  .00000000  00000+0  00000-0 0  9996
2 35360  55.0000  36.0000 0000000   0.0000 216.0000 14.06899548    12
CTC2_L_00251004-04
1 35361U 22287ZX  26037.47792824  .00000000  00000+0  00000-0 0  9999
2 35361  55.0000  36.0000 0000000   0.0000 306.0000 14.06899548    13
CTC2_L_00251005-01
1 35362U 22855IX  26037.47792824  .00000000  00000+0  00000-0 0  9991
2 35362  55.0000  48.0000 0000000   0.0000  48.0000 14.06899548    10
CTC2_L_00251005-02
1 35363U 26214BI  26037.47792824  .00000000  00000+0  00000-0 0  9995
2 35363  55.0000  48.0000 0000000   0.0000 138.0000 14.06899548    11
CTC2_L_00251005-03
1 35364U 24145DJ  26037.47792824  .00000000  00000+0  00000-0 0  9997
2 35364  55.0000  48.0000 0000000   0.0000 228.0000 14.06899548    12
CTC2_L_00251005-04
1 35365U 26674AC  26037.47792824  .00000000  00000+0  00000-0 0  9997
2 35365  55.0000  48.0000 0000000   0.0000 318.0000 14.06899548    13
CTC2_L_00251006-01
1 35366U 23314UE  26037.47792824  .00000000  00000+0  00000-0 0  9996
2 35366  55.0000  60.0000 0000000   0.0000  60.0000 14.06899548    12
CTC2_L_00251006-02
1 35367U 26178MZ  26037.47792824  .00000000  00000+0  00000-0 0  9998
2 35367  55.0000  60.0000 0000000   0.0000 150.0000 14.06899548    13
CTC2_L_00251006-03
1 35368U 22642VS  26037.47792824  .00000000  00000+0  00000-0 0  9991
2 35368  55.0000  60.0000 0000000   0.0000 240.0000 14.06899548    14
CTC2_L_00251006-04
1 35369U 25618KH  26037.47792824  .00000000  00000+0  00000-0 0  9998
2 35369  55.0000  60.0000 0000000   0.0000 330.0000 14.06899548    15
CTC2_L_00251007-01
1 35370U 25437JY  26037.47792824  .00000000  00000+0  00000-0 0  9999
2 35370  55.0000  72.0000 0000000   0.0000  72.0000 14.06899548    13
CTC2_L_00251007-02
1 35371U 24550NH  26037.47792824  .00000000  00000+0  00000-0 0  9995
2 35371  55.0000  72.0000 0000000   0.0000 162.0000 14.06899548    14
CTC2_L_00251007-03
1 35372U 25666CA  26037.47792824  .00000000  00000+0  00000-0 0  9995
2 35372  55.0000  72.0000 0000000   0.0000 252.0000 14.06899548    15
CTC2_L_00251007-04
1 35373U 22950QA  26037.47792824  .00000000  00000+0  00000-0 0  9999
2 35373  55.0000  72.0000 0000000   0.0000 342.0000 14.06899548    16
CTC2_L_00251008-01
1 35374U 22893ZE  26037.47792824  .00000000  00000+0  00000-0 0  9996
2 35374  55.0000  84.0000 0000000   0.0000  84.0000 14.06899548    13
CTC2_L_00251008-02
1 35375U 25676XJ  26037.47792824  .00000000  00000+0  00000-0 0  9999
2 35375  55.0000  84.0000 0000000   0.0000 174.0000 14.06899548    14
CTC2_L_00251008-03
1 35376U 25615OU  26037.47792824  .00000000  00000+0  00000-0 0  9993
2 35376  55.0000  84.0000 0000000   0.0000 264.0000 14.06899548    15
CTC2_L_00251008-04
1 35377U 22615PO  26037.47792824  .00000000  00000+0  00000-0 0  9991
2 35377  55.0000  84.0000 0000000   0.0000 354.0000 14.06899548    16
CTC2_L_00251009-01
1 35378U 24715TY  26037.47792824  .00000000  00000+0  00000-0 0  9995
2 35378  55.0000  96.0000 0000000   0.0000  96.0000 14.06899548    13
CTC2_L_00251009-02
1 35379U 26350VG  26037.47792824  .00000000  00000+0  00000-0 0  9993
2 35379  55.0000  96.0000 0000000   0.0000 186.0000 14.06899548    14
CTC2_L_00251009-03
1 35380U 24709RZ  26037.47792824  .00000000  00000+0  00000-0 0  9991
2 35380  55.0000  96.0000 0000000   0.0000 276.0000 14.06899548    16
CTC2_L_00251009-04
1 35381U 26074CJ  26037.47792824  .00000000  00000+0  00000-0 0  9999
2 35381  55.0000  96.0000 0000000   0.0000   6.0000 14.06899548    18
CTC2_L_00251010-01
1 35382U 24754VV  26037.47792824  .00000000  00000+0  00000-0 0  9993
2 35382  55.0000 108.0000 0000000   0.0000 108.0000 14.06899548    16
CTC2_L_00251010-02
1 35383U 25016MA  26037.47792824  .00000000  00000+0  00000-0 0  9996
2 35383  55.0000 108.0000 0000000   0.0000 198.0000 14.06899548    16
CTC2_L_00251010-03
1 35384U 23391KA  26037.47792824  .00000000  00000+0  00000-0 0  9991
2 35384  55.0000 108.0000 0000000   0.0000 288.0000 14.06899548    17
CTC2_L_00251010-04
1 35385U 23820RH  26037.47792824  .00000000  00000+0  00000-0 0  9999
2 35385  55.0000 108.0000 0000000   0.0000  18.0000 14.06899548    19
CTC2_L_00251011-01
1 35386U 22736LB  26037.47792824  .00000000  00000+0  00000-0 0  9995
2 35386  55.0000 120.0000 0000000   0.0000 120.0000 14.06899548    18
CTC2_L_00251011-02
1 35387U 24967LD  26037.47792824  .00000000  00000+0  00000-0 0  9994
2 35387  55.0000 120.0000 0000000   0.0000 210.0000 14.06899548    19
CTC2_L_00251011-03
1 35388U 24225KE  26037.47792824  .00000000  00000+0  00000-0 0  9992
2 35388  55.0000 120.0000 0000000   0.0000 300.0000 14.06899548    10
CTC2_L_00251011-04
1 35389U 22267TW  26037.47792824  .00000000  00000+0  00000-0 0  9997
2 35389  55.0000 120.0000 0000000   0.0000  30.0000 14.06899548    11
CTC2_L_00251012-01
1 35390U 23054RQ  26037.47792824  .00000000  00000+0  00000-0 0  9994
2 35390  55.0000 132.0000 0000000   0.0000 132.0000 14.06899548    19
CTC2_L_00251012-02
1 35391U 26141JU  26037.47792824  .00000000  00000+0  00000-0 0  9995
2 35391  55.0000 132.0000 0000000   0.0000 222.0000 14.06899548    10
CTC2_L_00251012-03
1 35392U 25119YQ  26037.47792824  .00000000  00000+0  00000-0 0  9990
2 35392  55.0000 132.0000 0000000   0.0000 312.0000 14.06899548    11
CTC2_L_00251012-04
1 35393U 23576OW  26037.47792824  .00000000  00000+0  00000-0 0  9996
2 35393  55.0000 132.0000 0000000   0.0000  42.0000 14.06899548    12
CTC2_L_00251013-01
1 35394U 24550XJ  26037.47792824  .00000000  00000+0  00000-0 0  9990
2 35394  55.0000 144.0000 0000000   0.0000 144.0000 14.06899548    19
CTC2_L_00251013-02
1 35395U 22438WW  26037.47792824  .00000000  00000+0  00000-0 0  9994
2 35395  55.0000 144.0000 0000000   0.0000 234.0000 14.06899548    10
CTC2_L_00251013-03
1 35396U 25267JA  26037.47792824  .00000000  00000+0  00000-0 0  9998
2 35396  55.0000 144.0000 0000000   0.0000 324.0000 14.06899548    11
CTC2_L_00251013-04
1 35397U 23806VX  26037.47792824  .00000000  00000+0  00000-0 0  9996
2 35397  55.0000 144.0000 0000000   0.0000  54.0000 14.06899548    12
CTC2_L_00251014-01
1 35398U 23912XP  26037.47792824  .00000000  00000+0  00000-0 0  9995
2 35398  55.0000 156.0000 0000000   0.0000 156.0000 14.06899548    19
CTC2_L_00251014-02
1 35399U 22946BJ  26037.47792824  .00000000  00000+0  00000-0 0  9992
2 35399  55.0000 156.0000 0000000   0.0000 246.0000 14.06899548    10
CTC2_L_00251014-03
1 35400U 26634OJ  26037.47792824  .00000000  00000+0  00000-0 0  9993
2 35400  55.0000 156.0000 0000000   0.0000 336.0000 14.06899548    13
CTC2_L_00251014-04
1 35401U 25429AM  26037.47792824  .00000000  00000+0  00000-0 0  9995
2 35401  55.0000 156.0000 0000000   0.0000  66.0000 14.06899548    14
CTC2_L_00251015-01
1 35402U 25080RQ  26037.47792824  .00000000  00000+0  00000-0 0  9999
2 35402  55.0000 168.0000 0000000   0.0000 168.0000 14.06899548    11
CTC2_L_00251015-02
1 35403U 25263TB  26037.47792824  .00000000  00000+0  00000-0 0  9993
2 35403  55.0000 168.0000 0000000   0.0000 258.0000 14.06899548    12
CTC2_L_00251015-03
1 35404U 25287UM  26037.47792824  .00000000  00000+0  00000-0 0  9990
2 35404  55.0000 168.0000 0000000   0.0000 348.0000 14.06899548    13
CTC2_L_00251015-04
1 35405U 24110OQ  26037.47792824  .00000000  00000+0  00000-0 0  9995
2 35405  55.0000 168.0000 0000000   0.0000  78.0000 14.06899548    14
CTC2_L_00251016-01
1 35406U 24615OU  26037.47792824  .00000000  00000+0  00000-0 0  9996
2 35406  55.0000 180.0000 0000000   0.0000 180.0000 14.06899548    13
CTC2_L_00251016-02
1 35407U 24218VP  26037.47792824  .00000000  00000+0  00000-0 0  9996
2 35407  55.0000 180.0000 0000000   0.0000 270.0000 14.06899548    14
